{"fetched_at":"2026-03-29T02:12:04Z","count":15717,"tles":[{"name":"STARLINK-32680","line1":"1 62423U 24249Q   26087.33757669  .00042724  00000+0  15517-2 0  9996","line2":"2 62423  42.9994 208.9263 0002245 279.3612  80.6986 15.27608229 70667","category":"Starlink"}]}