{
  "norad_id": 62423,
  "name": "STARLINK-32680",
  "history": [
    {
      "epoch": "2026-03-28T08:06:06.626016Z",
      "apogee_km": 484.5052299174431,
      "perigee_km": 481.42390920255366,
      "latitude_deg": 2.32222393505068e-05,
      "longitude_deg": -98.36075011000771,
      "height_km": 482.4912643176405,
      "semi_major_axis_km": 6861.101569559998,
      "eccentricity": 0.00022455,
      "inclination_deg": 42.9994,
      "raan_deg": 208.9263,
      "arg_perigee_deg": 279.3612,
      "mean_anomaly_deg": 80.6986,
      "mean_motion_rev_day": 15.27608229
    }
  ]
}